{"type": "FeatureCollection", "features": [ {"type": "Feature", "properties": {"norad_id": 32440, "name": "FENGYUN 1C DEB", "group": "fengyun-1c-debris", "lat": -67.81331409157947, "lon": 10.360644818950215, "alt_km": 1272.948913626752, "timestamp": "2025-12-25T03:55:56.644603+00:00", "meta": {"OBJECT_NAME": "FENGYUN 1C DEB", "OBJECT_ID": "1999-025DBC", "EPOCH": "2025-12-24T19:39:57.716064", "MEAN_MOTION": 13.61347688, "ECCENTRICITY": 0.032345, "INCLINATION": 99.1528, "RA_OF_ASC_NODE": 213.3227, "ARG_OF_PERICENTER": 59.5036, "MEAN_ANOMALY": 303.7625, "EPHEMERIS_TYPE": 0, "CLASSIFICATION_TYPE": "U", "NORAD_CAT_ID": 32440, "ELEMENT_SET_NO": 999, "REV_AT_EPOCH": 60450, "BSTAR": 0.0035354, "MEAN_MOTION_DOT": 3.782e-05, "MEAN_MOTION_DDOT": 0}, "tle": {"line1": "1 32440U 99025DBC 25358.81941801  .00003782  00000+0  35354-2 0  9994", "line2": "2 32440  99.1528 213.3227 0323450  59.5036 303.7625 13.61347688604502"}}, "geometry": {"type": "Point", "coordinates": [10.360644818950215, -67.81331409157947]}}, {"type": "Feature", "properties": {"norad_id": 32447, "name": "FENGYUN 1C DEB", "group": "fengyun-1c-debris", "lat": -64.7763788277223, "lon": 175.41529411583983, "alt_km": 944.2828661254016, "timestamp": "2025-12-25T03:55:56.644613+00:00", "meta": {"OBJECT_NAME": "FENGYUN 1C DEB", "OBJECT_ID": "1999-025DBK", "EPOCH": "2025-12-09T20:22:18.261408", "MEAN_MOTION": 13.96013309, "ECCENTRICITY": 0.00800272, "INCLINATION": 98.9313, "RA_OF_ASC_NODE": 0.0649, "ARG_OF_PERICENTER": 49.1812, "MEAN_ANOMALY": 311.6255, "EPHEMERIS_TYPE": 0, "CLASSIFICATION_TYPE": "U", "NORAD_CAT_ID": 32447, "ELEMENT_SET_NO": 999, "REV_AT_EPOCH": 67838, "BSTAR": 0.00036340481, "MEAN_MOTION_DOT": 4.69e-06, "MEAN_MOTION_DDOT": 0}, "tle": {"line1": "1 32447U 99025DBK 25343.84882247  .00000469  00000+0  36340-3 0  9992", "line2": "2 32447  98.9313   0.0649 0080027  49.1812 311.6255 13.96013309678386"}}, "geometry": {"type": "Point", "coordinates": [175.41529411583983, -64.7763788277223]}}, {"type": "Feature", "properties": {"norad_id": 32451, "name": "FENGYUN 1C DEB", "group": "fengyun-1c-debris", "lat": -33.16525445264644, "lon": 153.1536664088749, "alt_km": 860.7158720195357, "timestamp": "2025-12-25T03:55:56.644623+00:00", "meta": {"OBJECT_NAME": "FENGYUN 1C DEB", "OBJECT_ID": "1999-025DBP", "EPOCH": "2025-12-24T04:24:12.683232", "MEAN_MOTION": 13.86627476, "ECCENTRICITY": 0.01849439, "INCLINATION": 99.9721, "RA_OF_ASC_NODE": 338.7114, "ARG_OF_PERICENTER": 164.6915, "MEAN_ANOMALY": 195.9939, "EPHEMERIS_TYPE": 0, "CLASSIFICATION_TYPE": "U", "NORAD_CAT_ID": 32451, "ELEMENT_SET_NO": 999, "REV_AT_EPOCH": 61923, "BSTAR": 0.0019407053, "MEAN_MOTION_DOT": 2.534e-05, "MEAN_MOTION_DDOT": 0}, "tle": {"line1": "1 32451U 99025DBP 25358.18348013  .00002534  00000+0  19407-2 0  9997", "line2": "2 32451  99.9721 338.7114 0184943 164.6915 195.9939 13.86627476619238"}}, "geometry": {"type": "Point", "coordinates": [153.1536664088749, -33.16525445264644]}}, {"type": "Feature", "properties": {"norad_id": 32453, "name": "FENGYUN 1C DEB", "group": "fengyun-1c-debris", "lat": 71.17265948146182, "lon": 118.18969690233679, "alt_km": 849.0411689183402, "timestamp": "2025-12-25T03:55:56.644633+00:00", "meta": {"OBJECT_NAME": "FENGYUN 1C DEB", "OBJECT_ID": "1999-025DBR", "EPOCH": "2025-12-24T17:08:53.791872", "MEAN_MOTION": 14.02273795, "ECCENTRICITY": 0.0096522, "INCLINATION": 99.3717, "RA_OF_ASC_NODE": 268.7578, "ARG_OF_PERICENTER": 172.8067, "MEAN_ANOMALY": 187.4508, "EPHEMERIS_TYPE": 0, "CLASSIFICATION_TYPE": "U", "NORAD_CAT_ID": 32453, "ELEMENT_SET_NO": 999, "REV_AT_EPOCH": 93596, "BSTAR": 0.00052135, "MEAN_MOTION_DOT": 7.85e-06, "MEAN_MOTION_DDOT": 0}, "tle": {"line1": "1 32453U 99025DBR 25358.71451148  .00000785  00000+0  52135-3 0  9994", "line2": "2 32453  99.3717 268.7578 0096522 172.8067 187.4508 14.02273795935968"}}, "geometry": {"type": "Point", "coordinates": [118.18969690233679, 71.17265948146182]}}, {"type": "Feature", "properties": {"norad_id": 32455, "name": "FENGYUN 1C DEB", "group": "fengyun-1c-debris", "lat": 75.20720530763059, "lon": 66.46730788398102, "alt_km": 746.3810608807144, "timestamp": "2025-12-25T03:55:56.644644+00:00", "meta": {"OBJECT_NAME": "FENGYUN 1C DEB", "OBJECT_ID": "1999-025DBT", "EPOCH": "2025-12-19T18:08:22.954272", "MEAN_MOTION": 13.92504596, "ECCENTRICITY": 0.02356741, "INCLINATION": 101.733, "RA_OF_ASC_NODE": 187.728, "ARG_OF_PERICENTER": 127.7857, "MEAN_ANOMALY": 234.4892, "EPHEMERIS_TYPE": 0, "CLASSIFICATION_TYPE": "U", "NORAD_CAT_ID": 32455, "ELEMENT_SET_NO": 999, "REV_AT_EPOCH": 64513, "BSTAR": 0.001718498, "MEAN_MOTION_DOT": 2.717e-05, "MEAN_MOTION_DDOT": 0}, "tle": {"line1": "1 32455U 99025DBT 25353.75582123  .00002717  00000+0  17185-2 0  9995", "line2": "2 32455 101.7330 187.7280 0235674 127.7857 234.4892 13.92504596645138"}}, "geometry": {"type": "Point", "coordinates": [66.46730788398102, 75.20720530763059]}}, {"type": "Feature", "properties": {"norad_id": 32456, "name": "FENGYUN 1C DEB", "group": "fengyun-1c-debris", "lat": -40.59947487269566, "lon": 155.73610531573922, "alt_km": 1256.2683800344512, "timestamp": "2025-12-25T03:55:56.644654+00:00", "meta": {"OBJECT_NAME": "FENGYUN 1C DEB", "OBJECT_ID": "1999-025DBU", "EPOCH": "2025-12-17T03:48:04.533120", "MEAN_MOTION": 13.35640436, "ECCENTRICITY": 0.03794971, "INCLINATION": 103.6656, "RA_OF_ASC_NODE": 133.0133, "ARG_OF_PERICENTER": 216.4895, "MEAN_ANOMALY": 140.98, "EPHEMERIS_TYPE": 0, "CLASSIFICATION_TYPE": "U", "NORAD_CAT_ID": 32456, "ELEMENT_SET_NO": 999, "REV_AT_EPOCH": 60675, "BSTAR": 0.0016364212, "MEAN_MOTION_DOT": 1.184e-05, "MEAN_MOTION_DDOT": 0}, "tle": {"line1": "1 32456U 99025DBU 25351.15838580  .00001184  00000+0  16364-2 0  9994", "line2": "2 32456 103.6656 133.0133 0379497 216.4895 140.9800 13.35640436606758"}}, "geometry": {"type": "Point", "coordinates": [155.73610531573922, -40.59947487269566]}}, {"type": "Feature", "properties": {"norad_id": 32458, "name": "FENGYUN 1C DEB", "group": "fengyun-1c-debris", "lat": -56.90676324462329, "lon": -173.92821339453337, "alt_km": 695.9848905062781, "timestamp": "2025-12-25T03:55:56.644664+00:00", "meta": {"OBJECT_NAME": "FENGYUN 1C DEB", "OBJECT_ID": "1999-025DBW", "EPOCH": "2025-12-24T07:08:24.791424", "MEAN_MOTION": 14.62437066, "ECCENTRICITY": 0.00398704, "INCLINATION": 99.044, "RA_OF_ASC_NODE": 19.2699, "ARG_OF_PERICENTER": 338.3215, "MEAN_ANOMALY": 21.6295, "EPHEMERIS_TYPE": 0, "CLASSIFICATION_TYPE": "U", "NORAD_CAT_ID": 32458, "ELEMENT_SET_NO": 999, "REV_AT_EPOCH": 67958, "BSTAR": 0.0016307189, "MEAN_MOTION_DOT": 8.3e-05, "MEAN_MOTION_DDOT": 0}, "tle": {"line1": "1 32458U 99025DBW 25358.29750916  .00008300  00000+0  16307-2 0  9998", "line2": "2 32458  99.0440  19.2699 0039870 338.3215  21.6295 14.62437066679587"}}, "geometry": {"type": "Point", "coordinates": [-173.92821339453337, -56.90676324462329]}}, {"type": "Feature", "properties": {"norad_id": 32459, "name": "FENGYUN 1C DEB", "group": "fengyun-1c-debris", "lat": 25.577914601342954, "lon": -162.91220627277838, "alt_km": 596.4654236160104, "timestamp": "2025-12-25T03:55:56.644674+00:00", "meta": {"OBJECT_NAME": "FENGYUN 1C DEB", "OBJECT_ID": "1999-025DBX", "EPOCH": "2025-12-24T18:54:21.415104", "MEAN_MOTION": 14.42853594, "ECCENTRICITY": 0.021376, "INCLINATION": 98.3019, "RA_OF_ASC_NODE": 12.7136, "ARG_OF_PERICENTER": 149.9203, "MEAN_ANOMALY": 211.4468, "EPHEMERIS_TYPE": 0, "CLASSIFICATION_TYPE": "U", "NORAD_CAT_ID": 32459, "ELEMENT_SET_NO": 999, "REV_AT_EPOCH": 94724, "BSTAR": 0.0004464, "MEAN_MOTION_DOT": 1.914e-05, "MEAN_MOTION_DDOT": 0}, "tle": {"line1": "1 32459U 99025DBX 25358.78774786  .00001914  00000+0  44640-3 0  9990", "line2": "2 32459  98.3019  12.7136 0213760 149.9203 211.4468 14.42853594947249"}}, "geometry": {"type": "Point", "coordinates": [-162.91220627277838, 25.577914601342954]}}, {"type": "Feature", "properties": {"norad_id": 32460, "name": "FENGYUN 1C DEB", "group": "fengyun-1c-debris", "lat": -22.12549533682416, "lon": 145.92050013284654, "alt_km": 983.7134665058711, "timestamp": "2025-12-25T03:55:56.644684+00:00", "meta": {"OBJECT_NAME": "FENGYUN 1C DEB", "OBJECT_ID": "1999-025DBY", "EPOCH": "2025-12-23T15:45:03.737664", "MEAN_MOTION": 13.89610403, "ECCENTRICITY": 0.01859289, "INCLINATION": 98.0212, "RA_OF_ASC_NODE": 141.3333, "ARG_OF_PERICENTER": 93.8399, "MEAN_ANOMALY": 268.4041, "EPHEMERIS_TYPE": 0, "CLASSIFICATION_TYPE": "U", "NORAD_CAT_ID": 32460, "ELEMENT_SET_NO": 999, "REV_AT_EPOCH": 65405, "BSTAR": 0.00093026192, "MEAN_MOTION_DOT": 1.276e-05, "MEAN_MOTION_DDOT": 0}, "tle": {"line1": "1 32460U 99025DBY 25357.65629326  .00001276  00000+0  93026-3 0  9999", "line2": "2 32460  98.0212 141.3333 0185928  93.8399 268.4041 13.89610403654051"}}, "geometry": {"type": "Point", "coordinates": [145.92050013284654, -22.12549533682416]}}, {"type": "Feature", "properties": {"norad_id": 32461, "name": "FENGYUN 1C DEB", "group": "fengyun-1c-debris", "lat": 50.8345881721517, "lon": -157.62179040684438, "alt_km": 837.6804750415358, "timestamp": "2025-12-25T03:55:56.644694+00:00", "meta": {"OBJECT_NAME": "FENGYUN 1C DEB", "OBJECT_ID": "1999-025DBZ", "EPOCH": "2025-12-24T02:10:28.329888", "MEAN_MOTION": 13.72863387, "ECCENTRICITY": 0.02328242, "INCLINATION": 98.3337, "RA_OF_ASC_NODE": 211.8091, "ARG_OF_PERICENTER": 86.3573, "MEAN_ANOMALY": 65.2685, "EPHEMERIS_TYPE": 0, "CLASSIFICATION_TYPE": "U", "NORAD_CAT_ID": 32461, "ELEMENT_SET_NO": 999, "REV_AT_EPOCH": 67450, "BSTAR": 0.0012271191, "MEAN_MOTION_DOT": 1.339e-05, "MEAN_MOTION_DDOT": 0}, "tle": {"line1": "1 32461U 99025DBZ 25358.09060567  .00001339  00000+0  12271-2 0  9997", "line2": "2 32461  98.3337 211.8091 0232824  86.3573  65.2685 13.72863387674508"}}, "geometry": {"type": "Point", "coordinates": [-157.62179040684438, 50.8345881721517]}}]}